*******************************************************************************
Ephemeris / WWW_USER Mon Mar 24 08:49:32 2025 Pasadena, USA      / Horizons    
*******************************************************************************
Target body name: (2018 PU7)                      {source: JPL#13}
Center body name: Earth (399)                     {source: DE441}
Center-site name: Mauna Kea
*******************************************************************************
Start time      : A.D. 2019-Jan-19 04:15:00.0000 UT      
Stop  time      : A.D. 2019-Jan-19 16:49:00.0000 UT      
Step-size       : 1 minutes
*******************************************************************************
Target pole/equ : undefined
Target radii    : undefined                                                    
Center geodetic : 204.5278, 19.8260847, 4.21024   {E-lon(deg),Lat(deg),Alt(km)}
Center cylindric: 204.5278, 6006.35451, 2151.0229 {E-lon(deg),Dxy(km),Dz(km)}
Center pole/equ : ITRF93                          {East-longitude positive}
Center radii    : 6378.137, 6378.137, 6356.752 km {Equator_a, b, pole_c}       
Target primary  : Sun
Vis. interferer : MOON (R_eq= 1737.400) km        {source: DE441}
Rel. light bend : Sun                             {source: DE441}
Rel. lght bnd GM: 1.3271E+11 km^3/s^2                                          
Small-body perts: Yes                             {source: SB441-N16}
Atmos refraction: NO (AIRLESS)
RA format       : HMS
Time format     : CAL 
Calendar mode   : Mixed Julian/Gregorian
RTS-only print  : NO       
EOP file        : eop.250321.p250617                                           
EOP coverage    : DATA-BASED 1962-JAN-20 TO 2025-MAR-21. PREDICTS-> 2025-JUN-16
Units conversion: 1 au= 149597870.700 km, c= 299792.458 km/s, 1 day= 86400.0 s 
Table cut-offs 1: Elevation (-90.0deg=NO ),Airmass (>38.000=NO), Daylight (YES)
Table cut-offs 2: Solar elongation (  0.0,180.0=NO ),Local Hour Angle( 0.0=NO )
Table cut-offs 3: RA/DEC angular rate (     0.0=NO )                           
*******************************************************************************
Initial IAU76/J2000 heliocentric ecliptic osculating elements (au, days, deg.):
  EPOCH=  2458344.5 ! 2018-Aug-14.00 (TDB)         Residual RMS= .35253        
   EC= .5418411610879256   QR= .9908981152950816   TP= 2458306.0483912583      
   OM= 307.3200871504195   W=  329.2166965634538   IN= 6.906215163822786       
  Equivalent ICRF heliocentric cartesian coordinates (au, au/d):
   X= 8.533350742151261E-01  Y=-6.504796009993946E-01  Z=-2.480927258064065E-01
  VX= 1.615085148536055E-02 VY= 9.661045842052620E-03 VZ= 6.810490395822813E-03
Asteroid physical parameters (km, seconds, rotational period in hours):        
   GM= n.a.                RAD= n.a.               ROTPER= n.a.                
   H= 23.4                 G= .150                 B-V= n.a.                   
                           ALBEDO= n.a.            STYP= n.a.                  
*******************************************************************************
 Date__(UT)__HR:MN     R.A._________(ICRF)_________DEC
******************************************************
$$SOE
 2019-Jan-19 10:24  m  00 45 01.548257 +12 17 06.70289
 2019-Jan-19 10:25  m  00 45 01.613769 +12 17 07.00060
 2019-Jan-19 10:26  m  00 45 01.679285 +12 17 07.29832
 2019-Jan-19 10:27  m  00 45 01.744806 +12 17 07.59604
 2019-Jan-19 10:28  m  00 45 01.810332 +12 17 07.89376
 2019-Jan-19 10:29  m  00 45 01.875862 +12 17 08.19150
 2019-Jan-19 10:30  m  00 45 01.941397 +12 17 08.48923
 2019-Jan-19 10:31  m  00 45 02.006936 +12 17 08.78697
 2019-Jan-19 10:32  m  00 45 02.072480 +12 17 09.08472
 2019-Jan-19 10:33  m  00 45 02.138029 +12 17 09.38248
 2019-Jan-19 10:34  m  00 45 02.203582 +12 17 09.68024
 2019-Jan-19 10:35  m  00 45 02.269140 +12 17 09.97800
 2019-Jan-19 10:36  m  00 45 02.334703 +12 17 10.27577
 2019-Jan-19 10:37  m  00 45 02.400270 +12 17 10.57355
 2019-Jan-19 10:38  m  00 45 02.465842 +12 17 10.87134
 2019-Jan-19 10:39  m  00 45 02.531418 +12 17 11.16913
 2019-Jan-19 10:40  m  00 45 02.596999 +12 17 11.46692
 2019-Jan-19 10:41  m  00 45 02.662585 +12 17 11.76472
 2019-Jan-19 10:42  m  00 45 02.728175 +12 17 12.06253
 2019-Jan-19 10:43  m  00 45 02.793769 +12 17 12.36035
 2019-Jan-19 10:44  m  00 45 02.859368 +12 17 12.65817
 2019-Jan-19 10:45  m  00 45 02.924972 +12 17 12.95600
 2019-Jan-19 10:46  m  00 45 02.990580 +12 17 13.25383
 2019-Jan-19 10:47  m  00 45 03.056193 +12 17 13.55168
 2019-Jan-19 10:48  m  00 45 03.121810 +12 17 13.84953
 2019-Jan-19 10:49  m  00 45 03.187432 +12 17 14.14738
 2019-Jan-19 10:50  m  00 45 03.253058 +12 17 14.44524
 2019-Jan-19 10:51  m  00 45 03.318689 +12 17 14.74311
 2019-Jan-19 10:52  m  00 45 03.384324 +12 17 15.04099
 2019-Jan-19 10:53  m  00 45 03.449964 +12 17 15.33887
 2019-Jan-19 10:54  m  00 45 03.515608 +12 17 15.63676
 2019-Jan-19 10:55  m  00 45 03.581257 +12 17 15.93466
 2019-Jan-19 10:56  m  00 45 03.646910 +12 17 16.23256
 2019-Jan-19 10:57  m  00 45 03.712567 +12 17 16.53047
 2019-Jan-19 10:58  m  00 45 03.778229 +12 17 16.82839
 2019-Jan-19 10:59  m  00 45 03.843895 +12 17 17.12632
 2019-Jan-19 11:00  m  00 45 03.909566 +12 17 17.42425
 2019-Jan-19 11:01  m  00 45 03.975241 +12 17 17.72220
 2019-Jan-19 11:02  m  00 45 04.040920 +12 17 18.02015
 2019-Jan-19 11:03  m  00 45 04.106604 +12 17 18.31810
 2019-Jan-19 11:04  m  00 45 04.172292 +12 17 18.61607
 2019-Jan-19 11:05  m  00 45 04.237985 +12 17 18.91404
 2019-Jan-19 11:06  m  00 45 04.303682 +12 17 19.21202
 2019-Jan-19 11:07  m  00 45 04.369383 +12 17 19.51001
 2019-Jan-19 11:08  m  00 45 04.435088 +12 17 19.80800
 2019-Jan-19 11:09  m  00 45 04.500798 +12 17 20.10601
 2019-Jan-19 11:10  m  00 45 04.566512 +12 17 20.40402
 2019-Jan-19 11:11  m  00 45 04.632231 +12 17 20.70204
 2019-Jan-19 11:12  m  00 45 04.697953 +12 17 21.00007
 2019-Jan-19 11:13  m  00 45 04.763680 +12 17 21.29810
 2019-Jan-19 11:14  m  00 45 04.829412 +12 17 21.59615
 2019-Jan-19 11:15  m  00 45 04.895147 +12 17 21.89420
 2019-Jan-19 11:16  m  00 45 04.960887 +12 17 22.19226
 2019-Jan-19 11:17  m  00 45 05.026631 +12 17 22.49033
 2019-Jan-19 11:18  m  00 45 05.092379 +12 17 22.78841
 2019-Jan-19 11:19  m  00 45 05.158131 +12 17 23.08650
 2019-Jan-19 11:20  m  00 45 05.223888 +12 17 23.38459
 2019-Jan-19 11:21  m  00 45 05.289649 +12 17 23.68270
 2019-Jan-19 11:22  m  00 45 05.355414 +12 17 23.98081
 2019-Jan-19 11:23  m  00 45 05.421183 +12 17 24.27893
 2019-Jan-19 11:24  m  00 45 05.486956 +12 17 24.57707
 2019-Jan-19 11:25  m  00 45 05.552733 +12 17 24.87521
 2019-Jan-19 11:26  m  00 45 05.618515 +12 17 25.17335
 2019-Jan-19 11:27  m  00 45 05.684301 +12 17 25.47151
 2019-Jan-19 11:28  m  00 45 05.750090 +12 17 25.76968
 2019-Jan-19 11:29  m  00 45 05.815884 +12 17 26.06785
 2019-Jan-19 11:30  m  00 45 05.881682 +12 17 26.36604
 2019-Jan-19 11:31  m  00 45 05.947484 +12 17 26.66423
 2019-Jan-19 11:32  m  00 45 06.013290 +12 17 26.96244
 2019-Jan-19 11:33  m  00 45 06.079100 +12 17 27.26065
 2019-Jan-19 11:34  m  00 45 06.144914 +12 17 27.55887
 2019-Jan-19 11:35  m  00 45 06.210732 +12 17 27.85711
 2019-Jan-19 11:36  m  00 45 06.276554 +12 17 28.15535
 2019-Jan-19 11:37  m  00 45 06.342381 +12 17 28.45360
 2019-Jan-19 11:38  m  00 45 06.408211 +12 17 28.75186
 2019-Jan-19 11:39  m  00 45 06.474045 +12 17 29.05013
 2019-Jan-19 11:40  m  00 45 06.539883 +12 17 29.34841
 2019-Jan-19 11:41  m  00 45 06.605725 +12 17 29.64670
 2019-Jan-19 11:42  m  00 45 06.671571 +12 17 29.94500
 2019-Jan-19 11:43  m  00 45 06.737420 +12 17 30.24331
 2019-Jan-19 11:44  m  00 45 06.803274 +12 17 30.54163
 2019-Jan-19 11:45  m  00 45 06.869132 +12 17 30.83996
 2019-Jan-19 11:46  m  00 45 06.934993 +12 17 31.13830
 2019-Jan-19 11:47  m  00 45 07.000859 +12 17 31.43665
 2019-Jan-19 11:48  m  00 45 07.066728 +12 17 31.73501
 2019-Jan-19 11:49  m  00 45 07.132601 +12 17 32.03338
 2019-Jan-19 11:50  m  00 45 07.198478 +12 17 32.33176
 2019-Jan-19 11:51  m  00 45 07.264358 +12 17 32.63015
 2019-Jan-19 11:52  m  00 45 07.330243 +12 17 32.92855
 2019-Jan-19 11:53  m  00 45 07.396131 +12 17 33.22696
 2019-Jan-19 11:54  m  00 45 07.462023 +12 17 33.52539
 2019-Jan-19 11:55  m  00 45 07.527919 +12 17 33.82382
 2019-Jan-19 11:56  m  00 45 07.593819 +12 17 34.12226
 2019-Jan-19 11:57  m  00 45 07.659722 +12 17 34.42072
 2019-Jan-19 11:58  m  00 45 07.725629 +12 17 34.71918
 2019-Jan-19 11:59  m  00 45 07.791540 +12 17 35.01766
 2019-Jan-19 12:00  m  00 45 07.857454 +12 17 35.31614
 2019-Jan-19 12:01  m  00 45 07.923372 +12 17 35.61464
 2019-Jan-19 12:02  m  00 45 07.989294 +12 17 35.91315
 2019-Jan-19 12:03  m  00 45 08.055219 +12 17 36.21167
 2019-Jan-19 12:04  m  00 45 08.121148 +12 17 36.51020
 2019-Jan-19 12:05  m  00 45 08.187081 +12 17 36.80874
 2019-Jan-19 12:06  m  00 45 08.253017 +12 17 37.10729
 2019-Jan-19 12:07  m  00 45 08.318957 +12 17 37.40585
 2019-Jan-19 12:08  m  00 45 08.384900 +12 17 37.70443
 2019-Jan-19 12:09  m  00 45 08.450847 +12 17 38.00301
 2019-Jan-19 12:10  m  00 45 08.516798 +12 17 38.30161
 2019-Jan-19 12:11  m  00 45 08.582752 +12 17 38.60022
 2019-Jan-19 12:12  m  00 45 08.648709 +12 17 38.89884
 2019-Jan-19 12:13  m  00 45 08.714670 +12 17 39.19747
 2019-Jan-19 12:14  m  00 45 08.780635 +12 17 39.49611
 2019-Jan-19 12:15  m  00 45 08.846603 +12 17 39.79476
 2019-Jan-19 12:16  m  00 45 08.912574 +12 17 40.09343
 2019-Jan-19 12:17  m  00 45 08.978549 +12 17 40.39211
 2019-Jan-19 12:18  m  00 45 09.044528 +12 17 40.69079
 2019-Jan-19 12:19  m  00 45 09.110509 +12 17 40.98949
 2019-Jan-19 12:20  m  00 45 09.176494 +12 17 41.28821
 2019-Jan-19 12:21  m  00 45 09.242483 +12 17 41.58693
 2019-Jan-19 12:22  m  00 45 09.308475 +12 17 41.88567
 2019-Jan-19 12:23  m  00 45 09.374470 +12 17 42.18441
 2019-Jan-19 12:24  m  00 45 09.440468 +12 17 42.48317
 2019-Jan-19 12:25  m  00 45 09.506470 +12 17 42.78195
 2019-Jan-19 12:26  m  00 45 09.572475 +12 17 43.08073
